{"type": "FeatureCollection", "features": [{"type": "Feature", "properties": {"norad_id": 28054, "name": "DMSP 5D-3 F16 (USA 172)", "group": "weather", "lat": 80.81411126442225, "lon": -70.94855259239753, "alt_km": 840.2614733172868, "timestamp": "2025-12-16T05:49:08.865876+00:00", "meta": {"OBJECT_NAME": "DMSP 5D-3 F16 (USA 172)", "OBJECT_ID": "2003-048A", "EPOCH": "2025-12-15T22:53:48.488352", "MEAN_MOTION": 14.14425402, "ECCENTRICITY": 0.00063972, "INCLINATION": 99.0044, "RA_OF_ASC_NODE": 7.4364, "ARG_OF_PERICENTER": 310.7198, "MEAN_ANOMALY": 109.587, "EPHEMERIS_TYPE": 0, "CLASSIFICATION_TYPE": "U", "NORAD_CAT_ID": 28054, "ELEMENT_SET_NO": 999, "REV_AT_EPOCH": 14358, "BSTAR": 9.2293294e-05, "MEAN_MOTION_DOT": 1.31e-06, "MEAN_MOTION_DDOT": 0}, "tle": {"line1": "1 28054U 03048A   25349.95403343  .00000131  00000+0  92293-4 0  9991", "line2": "2 28054  99.0044   7.4364 0006397 310.7198 109.5870 14.14425402143583"}}, "geometry": {"type": "Point", "coordinates": [-70.94855259239753, 80.81411126442225]}}, {"type": "Feature", "properties": {"norad_id": 28912, "name": "METEOSAT-9 (MSG-2)", "group": "weather", "lat": 2.710548353486931, "lon": -141.64823571986852, "alt_km": 35771.17314271702, "timestamp": "2025-12-16T05:49:08.865921+00:00", "meta": {"OBJECT_NAME": "METEOSAT-9 (MSG-2)", "OBJECT_ID": "2005-049B", "EPOCH": "2025-12-15T20:27:10.626048", "MEAN_MOTION": 1.00278296, "ECCENTRICITY": 0.00034199, "INCLINATION": 8.9463, "RA_OF_ASC_NODE": 55.948, "ARG_OF_PERICENTER": 190.7144, "MEAN_ANOMALY": 190.6182, "EPHEMERIS_TYPE": 0, "CLASSIFICATION_TYPE": "U", "NORAD_CAT_ID": 28912, "ELEMENT_SET_NO": 999, "REV_AT_EPOCH": 516, "BSTAR": 0, "MEAN_MOTION_DOT": 1.39e-06, "MEAN_MOTION_DDOT": 0}, "tle": {"line1": "1 28912U 05049B   25349.85220632  .00000139  00000+0  00000+0 0  9992", "line2": "2 28912   8.9463  55.9480 0003419 190.7144 190.6182  1.00278296  5162"}}, "geometry": {"type": "Point", "coordinates": [-141.64823571986852, 2.710548353486931]}}, {"type": "Feature", "properties": {"norad_id": 29522, "name": "DMSP 5D-3 F17 (USA 191)", "group": "weather", "lat": 34.148543299808104, "lon": -10.430154443946025, "alt_km": 847.2158233509581, "timestamp": "2025-12-16T05:49:08.865940+00:00", "meta": {"OBJECT_NAME": "DMSP 5D-3 F17 (USA 191)", "OBJECT_ID": "2006-050A", "EPOCH": "2025-12-15T22:52:01.818048", "MEAN_MOTION": 14.14921037, "ECCENTRICITY": 0.00095374, "INCLINATION": 98.7392, "RA_OF_ASC_NODE": 355.275, "ARG_OF_PERICENTER": 215.0402, "MEAN_ANOMALY": 145.0145, "EPHEMERIS_TYPE": 0, "CLASSIFICATION_TYPE": "U", "NORAD_CAT_ID": 29522, "ELEMENT_SET_NO": 999, "REV_AT_EPOCH": 98650, "BSTAR": 0.00010750793, "MEAN_MOTION_DOT": 1.64e-06, "MEAN_MOTION_DDOT": 0}, "tle": {"line1": "1 29522U 06050A   25349.95279882  .00000164  00000+0  10751-3 0  9991", "line2": "2 29522  98.7392 355.2750 0009537 215.0402 145.0145 14.14921037986505"}}, "geometry": {"type": "Point", "coordinates": [-10.430154443946025, 34.148543299808104]}}, {"type": "Feature", "properties": {"norad_id": 32958, "name": "FENGYUN 3A", "group": "weather", "lat": 13.23982576861317, "lon": 111.75269822772147, "alt_km": 831.8590460492751, "timestamp": "2025-12-16T05:49:08.865954+00:00", "meta": {"OBJECT_NAME": "FENGYUN 3A", "OBJECT_ID": "2008-026A", "EPOCH": "2025-12-15T20:34:41.856960", "MEAN_MOTION": 14.19515611, "ECCENTRICITY": 0.00077955, "INCLINATION": 98.6699, "RA_OF_ASC_NODE": 289.3185, "ARG_OF_PERICENTER": 300.5674, "MEAN_ANOMALY": 59.4732, "EPHEMERIS_TYPE": 0, "CLASSIFICATION_TYPE": "U", "NORAD_CAT_ID": 32958, "ELEMENT_SET_NO": 999, "REV_AT_EPOCH": 90939, "BSTAR": 6.8055938e-05, "MEAN_MOTION_DOT": 1e-06, "MEAN_MOTION_DDOT": 0}, "tle": {"line1": "1 32958U 08026A   25349.85742890  .00000100  00000+0  68056-4 0  9998", "line2": "2 32958  98.6699 289.3185 0007795 300.5674  59.4732 14.19515611909399"}}, "geometry": {"type": "Point", "coordinates": [111.75269822772147, 13.23982576861317]}}, {"type": "Feature", "properties": {"norad_id": 35491, "name": "GOES 14", "group": "weather", "lat": -0.4861138615259177, "lon": 60.45103465490715, "alt_km": 35837.83472821876, "timestamp": "2025-12-16T05:49:08.865969+00:00", "meta": {"OBJECT_NAME": "GOES 14", "OBJECT_ID": "2009-033A", "EPOCH": "2025-12-15T12:51:26.265888", "MEAN_MOTION": 1.00096491, "ECCENTRICITY": 6.041e-05, "INCLINATION": 1.2099, "RA_OF_ASC_NODE": 85.3705, "ARG_OF_PERICENTER": 168.6787, "MEAN_ANOMALY": 271.7274, "EPHEMERIS_TYPE": 0, "CLASSIFICATION_TYPE": "U", "NORAD_CAT_ID": 35491, "ELEMENT_SET_NO": 999, "REV_AT_EPOCH": 475, "BSTAR": 0, "MEAN_MOTION_DOT": 0, "MEAN_MOTION_DDOT": 0}, "tle": {"line1": "1 35491U 09033A   25349.53572067  .00000000  00000+0  00000+0 0  9993", "line2": "2 35491   1.2099  85.3705 0000604 168.6787 271.7274  1.00096491  4752"}}, "geometry": {"type": "Point", "coordinates": [60.45103465490715, -0.4861138615259177]}}, {"type": "Feature", "properties": {"norad_id": 35951, "name": "DMSP 5D-3 F18 (USA 210)", "group": "weather", "lat": -76.80507045592624, "lon": 104.78301093899232, "alt_km": 858.1287036219182, "timestamp": "2025-12-16T05:49:08.865985+00:00", "meta": {"OBJECT_NAME": "DMSP 5D-3 F18 (USA 210)", "OBJECT_ID": "2009-057A", "EPOCH": "2025-12-15T21:48:13.845312", "MEAN_MOTION": 14.14771163, "ECCENTRICITY": 0.00119939, "INCLINATION": 98.8836, "RA_OF_ASC_NODE": 326.2934, "ARG_OF_PERICENTER": 54.4286, "MEAN_ANOMALY": 305.8003, "EPHEMERIS_TYPE": 0, "CLASSIFICATION_TYPE": "U", "NORAD_CAT_ID": 35951, "ELEMENT_SET_NO": 999, "REV_AT_EPOCH": 83367, "BSTAR": 0.00016864252, "MEAN_MOTION_DOT": 2.81e-06, "MEAN_MOTION_DDOT": 0}, "tle": {"line1": "1 35951U 09057A   25349.90849358  .00000281  00000+0  16864-3 0  9991", "line2": "2 35951  98.8836 326.2934 0011993  54.4286 305.8003 14.14771163833679"}}, "geometry": {"type": "Point", "coordinates": [104.78301093899232, -76.80507045592624]}}, {"type": "Feature", "properties": {"norad_id": 36411, "name": "EWS-G2 (GOES 15)", "group": "weather", "lat": 0.41560298512322036, "lon": -126.23095758610738, "alt_km": 35765.5785580997, "timestamp": "2025-12-16T05:49:08.865998+00:00", "meta": {"OBJECT_NAME": "EWS-G2 (GOES 15)", "OBJECT_ID": "2010-008A", "EPOCH": "2025-12-15T20:40:38.740800", "MEAN_MOTION": 1.00270508, "ECCENTRICITY": 0.00055584, "INCLINATION": 0.8214, "RA_OF_ASC_NODE": 86.0762, "ARG_OF_PERICENTER": 175.7709, "MEAN_ANOMALY": 194.4603, "EPHEMERIS_TYPE": 0, "CLASSIFICATION_TYPE": "U", "NORAD_CAT_ID": 36411, "ELEMENT_SET_NO": 999, "REV_AT_EPOCH": 5780, "BSTAR": 0, "MEAN_MOTION_DOT": 6e-07, "MEAN_MOTION_DDOT": 0}, "tle": {"line1": "1 36411U 10008A   25349.86155950  .00000060  00000+0  00000+0 0  9990", "line2": "2 36411   0.8214  86.0762 0005558 175.7709 194.4603  1.00270508 57800"}}, "geometry": {"type": "Point", "coordinates": [-126.23095758610738, 0.41560298512322036]}}, {"type": "Feature", "properties": {"norad_id": 36744, "name": "COMS 1", "group": "weather", "lat": -2.9615858140371962, "lon": -59.48971595840407, "alt_km": 35783.5200857295, "timestamp": "2025-12-16T05:49:08.866011+00:00", "meta": {"OBJECT_NAME": "COMS 1", "OBJECT_ID": "2010-032A", "EPOCH": "2025-12-15T13:59:49.717248", "MEAN_MOTION": 1.00271913, "ECCENTRICITY": 8.134e-05, "INCLINATION": 4.3476, "RA_OF_ASC_NODE": 77.9671, "ARG_OF_PERICENTER": 193.8202, "MEAN_ANOMALY": 150.8255, "EPHEMERIS_TYPE": 0, "CLASSIFICATION_TYPE": "U", "NORAD_CAT_ID": 36744, "ELEMENT_SET_NO": 999, "REV_AT_EPOCH": 4924, "BSTAR": 0, "MEAN_MOTION_DOT": -3.25e-06, "MEAN_MOTION_DDOT": 0}, "tle": {"line1": "1 36744U 10032A   25349.58321432 -.00000325  00000+0  00000+0 0  9990", "line2": "2 36744   4.3476  77.9671 0000813 193.8202 150.8255  1.00271913 49243"}}, "geometry": {"type": "Point", "coordinates": [-59.48971595840407, -2.9615858140371962]}}, {"type": "Feature", "properties": {"norad_id": 37214, "name": "FENGYUN 3B", "group": "weather", "lat": -44.26300864435287, "lon": -158.6321626427568, "alt_km": 858.2914162536617, "timestamp": "2025-12-16T05:49:08.866023+00:00", "meta": {"OBJECT_NAME": "FENGYUN 3B", "OBJECT_ID": "2010-059A", "EPOCH": "2025-12-16T00:12:24.285024", "MEAN_MOTION": 14.14789275, "ECCENTRICITY": 0.0021935, "INCLINATION": 98.9911, "RA_OF_ASC_NODE": 30.0088, "ARG_OF_PERICENTER": 348.6199, "MEAN_ANOMALY": 126.076, "EPHEMERIS_TYPE": 0, "CLASSIFICATION_TYPE": "U", "NORAD_CAT_ID": 37214, "ELEMENT_SET_NO": 999, "REV_AT_EPOCH": 78152, "BSTAR": -6.5912336e-05, "MEAN_MOTION_DOT": -1.73e-06, "MEAN_MOTION_DDOT": 0}, "tle": {"line1": "1 37214U 10059A   25350.00861441 -.00000173  00000+0 -65912-4 0  9990", "line2": "2 37214  98.9911  30.0088 0021935 348.6199 126.0760 14.14789275781528"}}, "geometry": {"type": "Point", "coordinates": [-158.6321626427568, -44.26300864435287]}}, {"type": "Feature", "properties": {"norad_id": 37849, "name": "SUOMI NPP", "group": "weather", "lat": 53.67903795798609, "lon": 119.68497090887128, "alt_km": 820.2427680520423, "timestamp": "2025-12-16T05:49:08.866034+00:00", "meta": {"OBJECT_NAME": "SUOMI NPP", "OBJECT_ID": "2011-061A", "EPOCH": "2025-12-15T22:27:51.272640", "MEAN_MOTION": 14.19515133, "ECCENTRICITY": 0.00023431, "INCLINATION": 98.7776, "RA_OF_ASC_NODE": 287.2488, "ARG_OF_PERICENTER": 114.4679, "MEAN_ANOMALY": 245.6741, "EPHEMERIS_TYPE": 0, "CLASSIFICATION_TYPE": "U", "NORAD_CAT_ID": 37849, "ELEMENT_SET_NO": 999, "REV_AT_EPOCH": 73244, "BSTAR": 6.5068248e-05, "MEAN_MOTION_DOT": 9.3e-07, "MEAN_MOTION_DDOT": 0}, "tle": {"line1": "1 37849U 11061A   25349.93601010  .00000093  00000+0  65068-4 0  9993", "line2": "2 37849  98.7776 287.2488 0002343 114.4679 245.6741 14.19515133732442"}}, "geometry": {"type": "Point", "coordinates": [119.68497090887128, 53.67903795798609]}}]}